ONEWEB-0204             
1 48225U 21031R   24049.84009622 -.00000038  00000+0 -13665-3 0  9994
2 48225  87.8925  98.7830 0002131 109.4502 250.6858 13.14503296136676
ONEWEB-0205             
1 48226U 21031S   24049.89164434  .00000211  00000+0  53547-3 0  9997
2 48226  87.8924  98.7437 0001651 100.8258 259.3058 13.14502446136694
ONEWEB-0182             
1 48228U 21031U   24049.63155617 -.00000126  00000+0 -37383-3 0  9991
2 48228  87.8925  98.8097 0001983 103.6583 256.4768 13.14504602136827
ONEWEB-0181             
1 48230U 21031W   24049.84880757 -.00000141  00000+0 -41438-3 0  9990
2 48230  87.8927  98.8003 0001796  93.0489 267.0846 13.14501046136653
ONEWEB-0188             
1 48231U 21031X   24049.88688403  .00000215  00000+0  54620-3 0  9996
2 48231  87.8924  98.7897 0001857  99.7385 260.3954 13.14503045136564
